CCSDS_OMM_VERS = 2.0
CREATION_DATE  = 
ORIGINATOR     = 

OBJECT_NAME    = SL-3 R/B
OBJECT_ID      = 1982-079B
CENTER_NAME    = EARTH
REF_FRAME      = TEME
TIME_SYSTEM    = UTC
MEAN_ELEMENT_THEORY = SGP/SGP4

EPOCH          = 2025-12-08T06:44:00.795264
MEAN_MOTION    = 15.23509607
ECCENTRICITY   = .00269127
INCLINATION    = 81.1474
RA_OF_ASC_NODE = 300.9165
ARG_OF_PERICENTER = 113.3528
MEAN_ANOMALY   = 247.0541

EPHEMERIS_TYPE = 0
CLASSIFICATION_TYPE = U
NORAD_CAT_ID   = 13403
ELEMENT_SET_NO = 999
REV_AT_EPOCH   = 36377
BSTAR          = .32454048E-3
MEAN_MOTION_DOT = .7852E-4
MEAN_MOTION_DDOT = 0

CCSDS_OMM_VERS = 2.0
CREATION_DATE  = 
ORIGINATOR     = 

OBJECT_NAME    = SL-14 R/B
OBJECT_ID      = 1982-092B
CENTER_NAME    = EARTH
REF_FRAME      = TEME
TIME_SYSTEM    = UTC
MEAN_ELEMENT_THEORY = SGP/SGP4

EPOCH          = 2025-12-08T04:20:43.509696
MEAN_MOTION    = 14.86548292
ECCENTRICITY   = .00189557
INCLINATION    = 82.5687
RA_OF_ASC_NODE = 226.9748
ARG_OF_PERICENTER = 243.2982
MEAN_ANOMALY   = 233.4001

EPHEMERIS_TYPE = 0
CLASSIFICATION_TYPE = U
NORAD_CAT_ID   = 13553
ELEMENT_SET_NO = 999
REV_AT_EPOCH   = 31533
BSTAR          = .87266007E-4
MEAN_MOTION_DOT = .799E-5
MEAN_MOTION_DDOT = 0

CCSDS_OMM_VERS = 2.0
CREATION_DATE  = 
ORIGINATOR     = 

OBJECT_NAME    = SL-3 R/B
OBJECT_ID      = 1983-010B
CENTER_NAME    = EARTH
REF_FRAME      = TEME
TIME_SYSTEM    = UTC
MEAN_ELEMENT_THEORY = SGP/SGP4

EPOCH          = 2025-12-07T20:16:16.144320
MEAN_MOTION    = 15.43265197
ECCENTRICITY   = .00174303
INCLINATION    = 81.1042
RA_OF_ASC_NODE = 114.5929
ARG_OF_PERICENTER = 8.0678
MEAN_ANOMALY   = 352.0841

EPHEMERIS_TYPE = 0
CLASSIFICATION_TYPE = U
NORAD_CAT_ID   = 13819
ELEMENT_SET_NO = 999
REV_AT_EPOCH   = 34376
BSTAR          = .47732103E-3
MEAN_MOTION_DOT = .21396E-3
MEAN_MOTION_DDOT = 0

CCSDS_OMM_VERS = 2.0
CREATION_DATE  = 
ORIGINATOR     = 

OBJECT_NAME    = SL-3 R/B
OBJECT_ID      = 1983-075B
CENTER_NAME    = EARTH
REF_FRAME      = TEME
TIME_SYSTEM    = UTC
MEAN_ELEMENT_THEORY = SGP/SGP4

EPOCH          = 2025-12-08T05:27:13.164480
MEAN_MOTION    = 15.35997306
ECCENTRICITY   = .00222047
INCLINATION    = 97.6105
RA_OF_ASC_NODE = 338.5592
ARG_OF_PERICENTER = 191.6459
MEAN_ANOMALY   = 168.4274

EPHEMERIS_TYPE = 0
CLASSIFICATION_TYPE = U
NORAD_CAT_ID   = 14208
ELEMENT_SET_NO = 999
REV_AT_EPOCH   = 31610
BSTAR          = .36591949E-3
MEAN_MOTION_DOT = .12849E-3
MEAN_MOTION_DDOT = 0

CCSDS_OMM_VERS = 2.0
CREATION_DATE  = 
ORIGINATOR     = 

OBJECT_NAME    = COSMOS 1536
OBJECT_ID      = 1984-013A
CENTER_NAME    = EARTH
REF_FRAME      = TEME
TIME_SYSTEM    = UTC
MEAN_ELEMENT_THEORY = SGP/SGP4

EPOCH          = 2025-12-08T01:46:48.933408
MEAN_MOTION    = 15.22440878
ECCENTRICITY   = .00133484
INCLINATION    = 82.5453
RA_OF_ASC_NODE = 198.7913
ARG_OF_PERICENTER = 243.6442
MEAN_ANOMALY   = 116.3424

EPHEMERIS_TYPE = 0
CLASSIFICATION_TYPE = U
NORAD_CAT_ID   = 14699
ELEMENT_SET_NO = 999
REV_AT_EPOCH   = 25867
BSTAR          = .33388253E-3
MEAN_MOTION_DOT = .7771E-4
MEAN_MOTION_DDOT = 0

CCSDS_OMM_VERS = 2.0
CREATION_DATE  = 
ORIGINATOR     = 

OBJECT_NAME    = SL-14 R/B
OBJECT_ID      = 1984-027B
CENTER_NAME    = EARTH
REF_FRAME      = TEME
TIME_SYSTEM    = UTC
MEAN_ELEMENT_THEORY = SGP/SGP4

EPOCH          = 2025-12-08T05:53:41.181792
MEAN_MOTION    = 14.85867317
ECCENTRICITY   = .00164091
INCLINATION    = 82.5409
RA_OF_ASC_NODE = 330.7711
ARG_OF_PERICENTER = 277.1661
MEAN_ANOMALY   = 82.7689

EPHEMERIS_TYPE = 0
CLASSIFICATION_TYPE = U
NORAD_CAT_ID   = 14820
ELEMENT_SET_NO = 999
REV_AT_EPOCH   = 23405
BSTAR          = .1129101E-3
MEAN_MOTION_DOT = .1009E-4
MEAN_MOTION_DDOT = 0

CCSDS_OMM_VERS = 2.0
CREATION_DATE  = 
ORIGINATOR     = 

OBJECT_NAME    = SL-8 R/B
OBJECT_ID      = 1985-006B
CENTER_NAME    = EARTH
REF_FRAME      = TEME
TIME_SYSTEM    = UTC
MEAN_ELEMENT_THEORY = SGP/SGP4

EPOCH          = 2025-12-08T07:07:35.583168
MEAN_MOTION    = 14.37717562
ECCENTRICITY   = .00184809
INCLINATION    = 74.0466
RA_OF_ASC_NODE = 69.3086
ARG_OF_PERICENTER = 2.6905
MEAN_ANOMALY   = 52.6193

EPHEMERIS_TYPE = 0
CLASSIFICATION_TYPE = U
NORAD_CAT_ID   = 15483
ELEMENT_SET_NO = 999
REV_AT_EPOCH   = 14089
BSTAR          = .18607515E-3
MEAN_MOTION_DOT = .534E-5
MEAN_MOTION_DDOT = 0

CCSDS_OMM_VERS = 2.0
CREATION_DATE  = 
ORIGINATOR     = 

OBJECT_NAME    = SL-12 R/B(2)
OBJECT_ID      = 1985-042D
CENTER_NAME    = EARTH
REF_FRAME      = TEME
TIME_SYSTEM    = UTC
MEAN_ELEMENT_THEORY = SGP/SGP4

EPOCH          = 2025-12-08T07:47:14.698752
MEAN_MOTION    = 14.21950047
ECCENTRICITY   = .00376861
INCLINATION    = 71.1085
RA_OF_ASC_NODE = 280.7474
ARG_OF_PERICENTER = 268.0049
MEAN_ANOMALY   = 206.4970

EPHEMERIS_TYPE = 0
CLASSIFICATION_TYPE = U
NORAD_CAT_ID   = 15772
ELEMENT_SET_NO = 999
REV_AT_EPOCH   = 10140
BSTAR          = .17116315E-3
MEAN_MOTION_DOT = .333E-5
MEAN_MOTION_DDOT = 0

CCSDS_OMM_VERS = 2.0
CREATION_DATE  = 
ORIGINATOR     = 

OBJECT_NAME    = SL-14 R/B
OBJECT_ID      = 1985-069B
CENTER_NAME    = EARTH
REF_FRAME      = TEME
TIME_SYSTEM    = UTC
MEAN_ELEMENT_THEORY = SGP/SGP4

EPOCH          = 2025-12-08T07:48:47.391264
MEAN_MOTION    = 14.86316780
ECCENTRICITY   = .00199159
INCLINATION    = 82.5264
RA_OF_ASC_NODE = 110.8525
ARG_OF_PERICENTER = 132.2074
MEAN_ANOMALY   = 228.0838

EPHEMERIS_TYPE = 0
CLASSIFICATION_TYPE = U
NORAD_CAT_ID   = 15945
ELEMENT_SET_NO = 999
REV_AT_EPOCH   = 15926
BSTAR          = .12804028E-3
MEAN_MOTION_DOT = .1155E-4
MEAN_MOTION_DDOT = 0

CCSDS_OMM_VERS = 2.0
CREATION_DATE  = 
ORIGINATOR     = 

OBJECT_NAME    = SL-16 R/B
OBJECT_ID      = 1985-097B
CENTER_NAME    = EARTH
REF_FRAME      = TEME
TIME_SYSTEM    = UTC
MEAN_ELEMENT_THEORY = SGP/SGP4

EPOCH          = 2025-12-08T08:07:28.430400
MEAN_MOTION    = 14.16581941
ECCENTRICITY   = .00064166
INCLINATION    = 71.0029
RA_OF_ASC_NODE = 332.8691
ARG_OF_PERICENTER = 17.8231
MEAN_ANOMALY   = 82.3887

EPHEMERIS_TYPE = 0
CLASSIFICATION_TYPE = U
NORAD_CAT_ID   = 16182
ELEMENT_SET_NO = 999
REV_AT_EPOCH   = 7429
BSTAR          = .67879288E-4
MEAN_MOTION_DOT = .88E-6
MEAN_MOTION_DDOT = 0

CCSDS_OMM_VERS = 2.0
CREATION_DATE  = 
ORIGINATOR     = 

OBJECT_NAME    = SL-14 R/B
OBJECT_ID      = 1986-006B
CENTER_NAME    = EARTH
REF_FRAME      = TEME
TIME_SYSTEM    = UTC
MEAN_ELEMENT_THEORY = SGP/SGP4

EPOCH          = 2025-12-08T06:11:04.230240
MEAN_MOTION    = 14.86663347
ECCENTRICITY   = .00757932
INCLINATION    = 82.5265
RA_OF_ASC_NODE = 345.7690
ARG_OF_PERICENTER = 214.8444
MEAN_ANOMALY   = 144.7799

EPHEMERIS_TYPE = 0
CLASSIFICATION_TYPE = U
NORAD_CAT_ID   = 16496
ELEMENT_SET_NO = 999
REV_AT_EPOCH   = 13562
BSTAR          = .12929715E-3
MEAN_MOTION_DOT = .1235E-4
MEAN_MOTION_DDOT = 0

CCSDS_OMM_VERS = 2.0
CREATION_DATE  = 
ORIGINATOR     = 

OBJECT_NAME    = COSMOS 1743
OBJECT_ID      = 1986-034A
CENTER_NAME    = EARTH
REF_FRAME      = TEME
TIME_SYSTEM    = UTC
MEAN_ELEMENT_THEORY = SGP/SGP4

EPOCH          = 2025-12-08T01:50:14.462592
MEAN_MOTION    = 15.51787815
ECCENTRICITY   = .00046908
INCLINATION    = 82.5344
RA_OF_ASC_NODE = 169.4339
ARG_OF_PERICENTER = 273.4273
MEAN_ANOMALY   = 86.6442

EPHEMERIS_TYPE = 0
CLASSIFICATION_TYPE = U
NORAD_CAT_ID   = 16719
ELEMENT_SET_NO = 999
REV_AT_EPOCH   = 16601
BSTAR          = .53950358E-3
MEAN_MOTION_DOT = .32327E-3
MEAN_MOTION_DDOT = 0

