SL-3 R/B                
1 13403U 82079B   25342.28056476  .00007852  00000+0  32454-3 0  9993
2 13403  81.1474 300.9165 0026912 113.3528 247.0541 15.23509607363772
SL-14 R/B               
1 13553U 82092B   25342.18105914  .00000799  00000+0  87266-4 0  9990
2 13553  82.5687 226.9748 0018955 243.2982 233.4001 14.86548292315338
SL-3 R/B                
1 13819U 83010B   25341.84463130  .00021396  00000+0  47732-3 0  9994
2 13819  81.1042 114.5929 0017430   8.0678 352.0841 15.43265197343764
SL-3 R/B                
1 14208U 83075B   25342.22723570  .00012849  00000+0  36592-3 0  9993
2 14208  97.6105 338.5592 0022204 191.6459 168.4274 15.35997306316106
COSMOS 1536             
1 14699U 84013A   25342.07417747  .00007771  00000+0  33388-3 0  9997
2 14699  82.5453 198.7913 0013348 243.6442 116.3424 15.22440878258670
SL-14 R/B               
1 14820U 84027B   25342.24561553  .00001009  00000+0  11291-3 0  9999
2 14820  82.5409 330.7711 0016409 277.1661  82.7689 14.85867317234051
SL-8 R/B                
1 15483U 85006B   25342.29693962  .00000534  00000+0  18608-3 0  9999
2 15483  74.0466  69.3086 0018480   2.6905  52.6193 14.37717562140896
SL-12 R/B(2)            
1 15772U 85042D   25342.32447568  .00000333  00000+0  17116-3 0  9993
2 15772  71.1085 280.7474 0037686 268.0049 206.4970 14.21950047101404
SL-14 R/B               
1 15945U 85069B   25342.32554851  .00001155  00000+0  12804-3 0  9990
2 15945  82.5264 110.8525 0019915 132.2074 228.0838 14.86316780159267
SL-16 R/B               
1 16182U 85097B   25342.33852350  .00000088  00000+0  67879-4 0  9998
2 16182  71.0029 332.8691 0006416  17.8231  82.3887 14.16581941 74298
SL-14 R/B               
1 16496U 86006B   25342.25768785  .00001235  00000+0  12930-3 0  9998
2 16496  82.5265 345.7690 0075793 214.8444 144.7799 14.86663347135624
COSMOS 1743             
1 16719U 86034A   25342.07655628  .00032327  00000+0  53950-3 0  9991
2 16719  82.5344 169.4339 0004690 273.4273  86.6442 15.51787815166016
